[{"OBJECT_NAME":"STARLINK-30989","OBJECT_ID":"2023-191C","EPOCH":"2026-03-09T22:00:01.999584","MEAN_MOTION":15.27580535,"ECCENTRICITY":0.00010754,"INCLINATION":43.0001,"RA_OF_ASC_NODE":102.4158,"ARG_OF_PERICENTER":261.9349,"MEAN_ANOMALY":73.7402,"EPHEMERIS_TYPE":0,"CLASSIFICATION_TYPE":"U","NORAD_CAT_ID":58510,"ELEMENT_SET_NO":999,"REV_AT_EPOCH":537,"BSTAR":0.00099358738,"MEAN_MOTION_DOT":0.0002718,"MEAN_MOTION_DDOT":0},{"OBJECT_NAME":"FLOCK 4G-24","OBJECT_ID":"2025-009AE","EPOCH":"2026-03-09T17:24:07.838208","MEAN_MOTION":15.27784978,"ECCENTRICITY":0.0001802,"INCLINATION":97.4061,"RA_OF_ASC_NODE":151.514,"ARG_OF_PERICENTER":280.2808,"MEAN_ANOMALY":79.8228,"EPHEMERIS_TYPE":0,"CLASSIFICATION_TYPE":"U","NORAD_CAT_ID":62637,"ELEMENT_SET_NO":999,"REV_AT_EPOCH":6373,"BSTAR":0.00038996067,"MEAN_MOTION_DOT":0.00010513,"MEAN_MOTION_DDOT":0}]
